QIANFAN-60              
1 62790U 25016F   25239.18430466  .00000102  00000+0  14029-3 0  9992
2 62790  88.9788 114.2108 0013853 300.6411  59.3374 13.50962190 32705
QIANFAN-61              
1 62791U 25016G   25239.19678633  .00000105  00000+0  14488-3 0  9996
2 62791  88.9855 114.2942 0013273 299.2548  60.7275 13.50967810 32729
QIANFAN-62              
1 62792U 25016H   25239.12674151  .00000110  00000+0  15166-3 0  9991
2 62792  88.9801 114.2280 0014665 299.3922  60.5765 13.50961797 32707
QIANFAN-63              
1 62793U 25016J   25239.13915076  .00000115  00000+0  15915-3 0  9994
2 62793  88.9808 114.1682 0014586 304.3870  55.5901 13.50958915 32749
QIANFAN-64              
1 62794U 25016K   25239.13084457  .00000112  00000+0  15528-3 0  9992
2 62794  88.9795 114.1636 0012270 298.3055  61.6858 13.50961413 32734
QIANFAN-65              
1 62795U 25016L   25239.18851415  .00000097  00000+0  13163-3 0  9999
2 62795  88.9791 114.1845 0012500 300.1520  59.8392 13.50965362 32726
QIANFAN-66              
1 62796U 25016M   25239.06912794  .00000107  00000+0  14682-3 0  9994
2 62796  88.9811 114.1458 0013516 295.1470  64.8279 13.50960539 32759
QIANFAN-67              
1 62797U 25016N   25239.14728210  .00000103  00000+0  14095-3 0  9996
2 62797  88.9801 114.1739 0013649 302.5053  57.4779 13.50969212 32736
QIANFAN-68              
1 62798U 25016P   25239.22544397  .00000105  00000+0  14400-3 0  9990
2 62798  88.9804 114.2101 0014232 300.1370  59.8370 13.50966697 32725
QIANFAN-69              
1 62799U 25016Q   25239.22957979  .00000107  00000+0  14693-3 0  9991
2 62799  88.9783 114.0993 0014426 301.1329  58.8407 13.50962210 32760
QIANFAN-70              
1 62800U 25016R   25239.17198799  .00000109  00000+0  15082-3 0  9990
2 62800  88.9804 114.2209 0013793 290.8585  69.1088 13.50966096 32714
QIANFAN-71              
1 62801U 25016S   25239.16795404  .00000121  00000+0  16879-3 0  9995
2 62801  88.9798 114.2075 0014438 305.2191  54.7608 13.50965847 32710
QIANFAN-72              
1 62802U 25016T   25239.16375736  .00000114  00000+0  15848-3 0  9995
2 62802  88.9788 114.2269 0018022 311.0281  48.9312 13.50961242 32704
QIANFAN-73              
1 63159U 25046A   25239.21147770  .00000188  00000+0  27277-3 0  9995
2 63159  88.9862 331.1175 0016796  79.0074 281.2966 13.50965622 32899
QIANFAN-74              
1 63160U 25046B   25239.19496031  .00000177  00000+0  25590-3 0  9995
2 63160  88.9862 331.0076 0002073 109.2813 250.8562 13.50971021 32951
QIANFAN-75              
1 63161U 25046C   25239.18271885  .00000193  00000+0  27987-3 0  9993
2 63161  88.9863 331.2408 0017980  81.7540 278.5649 13.50967188 32826
QIANFAN-76              
1 63162U 25046D   25239.17849336  .00000193  00000+0  27974-3 0  9991
2 63162  88.9863 331.2224 0015562  82.9374 277.3546 13.50964008 32837
QIANFAN-77              
1 63163U 25046E   25239.24581838  .00000413  00000+0  29112-3 0  9991
2 63163  88.9859 330.1046 0016338  62.6052 297.6785 13.96024544 33454
QIANFAN-78              
1 63164U 25046F   25239.21972141  .00000185  00000+0  26750-3 0  9991
2 63164  88.9862 331.0834 0016973  84.5511 275.7575 13.50967058 32912
QIANFAN-79              
1 63165U 25046G   25239.24839970  .00000185  00000+0  26784-3 0  9994
2 63165  88.9866 331.1837 0016622  83.0691 277.2351 13.50969222 32863
QIANFAN-80              
1 63166U 25046H   25239.19090807  .00000182  00000+0  26302-3 0  9990
2 63166  88.9862 330.8995 0015693  87.2297 273.0650 13.50969031 33018
QIANFAN-81              
1 63167U 25046J   25239.24437980  .00000187  00000+0  27069-3 0  9990
2 63167  88.9862 330.9624 0016462  76.5633 283.7352 13.50967765 32972
QIANFAN-82              
1 63168U 25046K   25239.20314713  .00000187  00000+0  27132-3 0  9996
2 63168  88.9862 331.0102 0014774  84.2091 276.0744 13.50964727 32957
QIANFAN-83              
1 63169U 25046L   25239.21569903  .00000217  00000+0  26551-3 0  9999
2 63169  88.9862 330.9959 0015908  75.9307 284.3618 13.61940698 32969
QIANFAN-84              
1 63170U 25046M   25239.23188667  .00000155  00000+0  22114-3 0  9999
2 63170  88.9862 331.1403 0017664  80.1285 280.1860 13.50971250 32882
QIANFAN-85              
1 63171U 25046N   25239.22793825  .00000184  00000+0  26569-3 0  9997
2 63171  88.9862 331.0129 0015099  83.1061 277.1807 13.50965709 32959
QIANFAN-86              
1 63172U 25046P   25239.23615822  .00000181  00000+0  26132-3 0  9992
2 63172  88.9864 330.8717 0013054  87.5112 272.7534 13.50966240 33035
QIANFAN-87              
1 63173U 25046Q   25239.20729885  .00000187  00000+0  27121-3 0  9990
2 63173  88.9860 330.9903 0013677  82.9239 277.3467 13.50962894 32968
QIANFAN-88              
1 63174U 25046R   25239.22383292  .00000188  00000+0  27185-3 0  9992
2 63174  88.9863 330.9405 0014185  89.6676 270.6101 13.50970204 32991
QIANFAN-89              
1 63175U 25046S   25239.18666893  .00000176  00000+0  25348-3 0  9995
2 63175  88.9863 331.1333 0018352  80.5690 279.7534 13.50970805 32886
QIANFAN-90              
1 63176U 25046T   25239.21547424  .00000165  00000+0  23608-3 0  9993
2 63176  88.9863 331.1025 0015251  79.6428 280.6441 13.50969900 32903
